ELECTRON R/B            
1 67230U 25307C   25355.36249005  .00071881  81069-5  20248-3 0  9997
2 67230  41.9820 123.1026 0261408 268.1410  88.9482 15.55087105    19
SPACEMOBILE-006         
1 67232U 25309A   25360.75210442  .00001165  00000+0  72651-4 0  9997
2 67232  53.0002  40.8851 0010477 329.2446  30.7932 15.17699903   405
LVM3 R/B                
1 67233U 25309B   25360.74928094  .00001231  00000+0  72627-4 0  9993
2 67233  52.9350  40.7629 0010474 355.6984   4.3917 15.19340101   404
2025-310A               
1 67234U 25310A   25363.31529228  .00002997  00000+0  13914-3 0  9991
2 67234  97.9653   8.0682 0151800  69.0443 292.6954 15.11166232   575
SL-4 R/B                
1 67235U 25310B   25364.49367916  .00129049  22032-5  30187-3 0  9990
2 67235  97.9705   9.5182 0301017  59.2140 303.8374 15.49853307   766
FENGYUN 4C              
1 67246U 25312A   25360.90857406  .00039214  41525-6  21251-2 0  9998
2 67246  28.4641 334.3215 7309751 179.7824 181.1675  2.27841578    17
CZ-3B R/B               
1 67247U 25312B   25365.07611309  .00115154 -87386-6  47663-3 0  9992
2 67247  28.4435 332.6557 7239869 181.6731 173.0291  2.39319155   108
TIANHUI 7               
1 67300U 25314A   25364.54693957  .00004086  00000+0  15763-3 0  9991
2 67300  97.4218  76.7599 0006247 231.9255 128.1421 15.26852571    76
CZ-4B R/B               
1 67301U 25314B   25364.53820645  .00106268  52323-5  57509-3 0  9997
2 67301  97.3764  76.7585 0149504  17.3840 343.2459 15.65683130    29
2025-315A               
1 67302U 25315A   25365.21575521  .00002040  00000+0  97608-3 0  9991
2 67302  19.4155 100.6045 7278210 179.7216 207.2594  2.27494845    27
